{
  "norad_id": 68054,
  "name": "STARLINK-36924",
  "history": [
    {
      "epoch": "2026-03-28T22:00:44.821152Z",
      "apogee_km": 344.9476488463306,
      "perigee_km": 343.0036138733403,
      "latitude_deg": -4.37718083882443e-05,
      "longitude_deg": 169.6982574460778,
      "height_km": 344.066442235533,
      "semi_major_axis_km": 6722.112631359835,
      "eccentricity": 0.0001446,
      "inclination_deg": 53.1595,
      "raan_deg": 326.2158,
      "arg_perigee_deg": 31.88,
      "mean_anomaly_deg": 328.2307,
      "mean_motion_rev_day": 15.752304
    }
  ]
}